{"type": "FeatureCollection", "features": [ {"type": "Feature", "properties": {"norad_id": 67080, "name": "STARLINK-36158", "group": "last-30-days", "lat": -60.95979383512127, "lon": 80.6911388562326, "alt_km": 312.6615067372959, "timestamp": "2025-12-23T09:49:05.800672+00:00", "meta": {"OBJECT_NAME": "STARLINK-36158", "OBJECT_ID": "2025-298F", "EPOCH": "2025-12-22T22:00:03.000096", "MEAN_MOTION": 15.89314883, "ECCENTRICITY": 0.00045618, "INCLINATION": 69.997, "RA_OF_ASC_NODE": 221.1083, "ARG_OF_PERICENTER": 272.4288, "MEAN_ANOMALY": 41.1116, "EPHEMERIS_TYPE": 0, "CLASSIFICATION_TYPE": "U", "NORAD_CAT_ID": 67080, "ELEMENT_SET_NO": 999, "REV_AT_EPOCH": 255, "BSTAR": -0.0058244604, "MEAN_MOTION_DOT": -0.016789, "MEAN_MOTION_DDOT": 0.00076648295}, "tle": {"line1": "1 67080U 25298F   25356.91670139 -.01678900  76648-3 -58245-2 0  9997", "line2": "2 67080  69.9970 221.1083 0004561 272.4288  41.1116 15.89314883  2555"}}, "geometry": {"type": "Point", "coordinates": [80.6911388562326, -60.95979383512127]}}, {"type": "Feature", "properties": {"norad_id": 67081, "name": "STARLINK-35864", "group": "last-30-days", "lat": -62.32032706885584, "lon": 83.66966788912318, "alt_km": 312.905990634762, "timestamp": "2025-12-23T09:49:05.800685+00:00", "meta": {"OBJECT_NAME": "STARLINK-35864", "OBJECT_ID": "2025-298G", "EPOCH": "2025-12-22T22:00:03.000096", "MEAN_MOTION": 15.89355353, "ECCENTRICITY": 0.00043921, "INCLINATION": 69.9971, "RA_OF_ASC_NODE": 221.106, "ARG_OF_PERICENTER": 275.8592, "MEAN_ANOMALY": 39.6372, "EPHEMERIS_TYPE": 0, "CLASSIFICATION_TYPE": "U", "NORAD_CAT_ID": 67081, "ELEMENT_SET_NO": 999, "REV_AT_EPOCH": 261, "BSTAR": -0.006061448, "MEAN_MOTION_DOT": -0.01749766, "MEAN_MOTION_DDOT": 0.00082786252}, "tle": {"line1": "1 67081U 25298G   25356.91670139 -.01749766  82786-3 -60614-2 0  9990", "line2": "2 67081  69.9971 221.1060 0004392 275.8592  39.6372 15.89355353  2619"}}, "geometry": {"type": "Point", "coordinates": [83.66966788912318, -62.32032706885584]}}, {"type": "Feature", "properties": {"norad_id": 67082, "name": "STARLINK-36035", "group": "last-30-days", "lat": -63.696151762072496, "lon": 87.15561046410056, "alt_km": 312.7736456638604, "timestamp": "2025-12-23T09:49:05.800695+00:00", "meta": {"OBJECT_NAME": "STARLINK-36035", "OBJECT_ID": "2025-298H", "EPOCH": "2025-12-22T22:00:03.000096", "MEAN_MOTION": 15.89386502, "ECCENTRICITY": 0.00045186, "INCLINATION": 69.9971, "RA_OF_ASC_NODE": 221.1036, "ARG_OF_PERICENTER": 270.2528, "MEAN_ANOMALY": 47.3353, "EPHEMERIS_TYPE": 0, "CLASSIFICATION_TYPE": "U", "NORAD_CAT_ID": 67082, "ELEMENT_SET_NO": 999, "REV_AT_EPOCH": 261, "BSTAR": -0.0062651728, "MEAN_MOTION_DOT": -0.01810732, "MEAN_MOTION_DDOT": 0.00088250445}, "tle": {"line1": "1 67082U 25298H   25356.91670139 -.01810732  88250-3 -62652-2 0  9999", "line2": "2 67082  69.9971 221.1036 0004518 270.2528  47.3353 15.89386502  2616"}}, "geometry": {"type": "Point", "coordinates": [87.15561046410056, -63.696151762072496]}}, {"type": "Feature", "properties": {"norad_id": 67083, "name": "STARLINK-36170", "group": "last-30-days", "lat": -65.00502548828068, "lon": 91.07008227956452, "alt_km": 312.8101346230842, "timestamp": "2025-12-23T09:49:05.800708+00:00", "meta": {"OBJECT_NAME": "STARLINK-36170", "OBJECT_ID": "2025-298J", "EPOCH": "2025-12-22T22:00:03.000096", "MEAN_MOTION": 15.8941683, "ECCENTRICITY": 0.00045671, "INCLINATION": 69.9968, "RA_OF_ASC_NODE": 221.1008, "ARG_OF_PERICENTER": 270.1193, "MEAN_ANOMALY": 49.6121, "EPHEMERIS_TYPE": 0, "CLASSIFICATION_TYPE": "U", "NORAD_CAT_ID": 67083, "ELEMENT_SET_NO": 999, "REV_AT_EPOCH": 261, "BSTAR": -0.0064748806, "MEAN_MOTION_DOT": -0.01873439, "MEAN_MOTION_DDOT": 0.0009405125}, "tle": {"line1": "1 67083U 25298J   25356.91670139 -.01873439  94051-3 -64749-2 0  9998", "line2": "2 67083  69.9968 221.1008 0004567 270.1193  49.6121 15.89416830  2619"}}, "geometry": {"type": "Point", "coordinates": [91.07008227956452, -65.00502548828068]}}, {"type": "Feature", "properties": {"norad_id": 67084, "name": "STARLINK-36166", "group": "last-30-days", "lat": -66.13377451751114, "lon": 95.10321354317172, "alt_km": 312.8515626356402, "timestamp": "2025-12-23T09:49:05.800718+00:00", "meta": {"OBJECT_NAME": "STARLINK-36166", "OBJECT_ID": "2025-298K", "EPOCH": "2025-12-22T22:00:03.000096", "MEAN_MOTION": 15.89434932, "ECCENTRICITY": 0.00045775, "INCLINATION": 69.9968, "RA_OF_ASC_NODE": 221.0983, "ARG_OF_PERICENTER": 271.1494, "MEAN_ANOMALY": 50.5982, "EPHEMERIS_TYPE": 0, "CLASSIFICATION_TYPE": "U", "NORAD_CAT_ID": 67084, "ELEMENT_SET_NO": 999, "REV_AT_EPOCH": 255, "BSTAR": -0.0065945609, "MEAN_MOTION_DOT": -0.01909359, "MEAN_MOTION_DDOT": 0.00097459092}, "tle": {"line1": "1 67084U 25298K   25356.91670139 -.01909359  97459-3 -65946-2 0  9995", "line2": "2 67084  69.9968 221.0983 0004577 271.1494  50.5982 15.89434932  2559"}}, "geometry": {"type": "Point", "coordinates": [95.10321354317172, -66.13377451751114]}}, {"type": "Feature", "properties": {"norad_id": 67085, "name": "STARLINK-35794", "group": "last-30-days", "lat": -67.13288241677317, "lon": 99.42110228409275, "alt_km": 312.80737036582286, "timestamp": "2025-12-23T09:49:05.800728+00:00", "meta": {"OBJECT_NAME": "STARLINK-35794", "OBJECT_ID": "2025-298L", "EPOCH": "2025-12-22T22:00:03.000096", "MEAN_MOTION": 15.89451861, "ECCENTRICITY": 0.0004668, "INCLINATION": 69.9967, "RA_OF_ASC_NODE": 221.096, "ARG_OF_PERICENTER": 269.7821, "MEAN_ANOMALY": 53.9489, "EPHEMERIS_TYPE": 0, "CLASSIFICATION_TYPE": "U", "NORAD_CAT_ID": 67085, "ELEMENT_SET_NO": 999, "REV_AT_EPOCH": 261, "BSTAR": -0.0067090229, "MEAN_MOTION_DOT": -0.01943793, "MEAN_MOTION_DDOT": 0.0010078387}, "tle": {"line1": "1 67085U 25298L   25356.91670139 -.01943793  10078-2 -67090-2 0  9999", "line2": "2 67085  69.9967 221.0960 0004668 269.7821  53.9489 15.89451861  2618"}}, "geometry": {"type": "Point", "coordinates": [99.42110228409275, -67.13288241677317]}}, {"type": "Feature", "properties": {"norad_id": 67086, "name": "STARLINK-35841", "group": "last-30-days", "lat": -68.11219771222544, "lon": 104.7363685625147, "alt_km": 312.9267329832646, "timestamp": "2025-12-23T09:49:05.800738+00:00", "meta": {"OBJECT_NAME": "STARLINK-35841", "OBJECT_ID": "2025-298M", "EPOCH": "2025-12-22T22:00:03.000096", "MEAN_MOTION": 15.89457439, "ECCENTRICITY": 0.00045784, "INCLINATION": 69.9968, "RA_OF_ASC_NODE": 221.0933, "ARG_OF_PERICENTER": 269.5871, "MEAN_ANOMALY": 56.4106, "EPHEMERIS_TYPE": 0, "CLASSIFICATION_TYPE": "U", "NORAD_CAT_ID": 67086, "ELEMENT_SET_NO": 999, "REV_AT_EPOCH": 261, "BSTAR": -0.0068146507, "MEAN_MOTION_DOT": -0.01974496, "MEAN_MOTION_DDOT": 0.0010378725}, "tle": {"line1": "1 67086U 25298M   25356.91670139 -.01974496  10379-2 -68147-2 0  9992", "line2": "2 67086  69.9968 221.0933 0004578 269.5871  56.4106 15.89457439  2614"}}, "geometry": {"type": "Point", "coordinates": [104.7363685625147, -68.11219771222544]}}, {"type": "Feature", "properties": {"norad_id": 67087, "name": "STARLINK-35842", "group": "last-30-days", "lat": -68.75709769416339, "lon": 109.24663465281445, "alt_km": 312.926545891909, "timestamp": "2025-12-23T09:49:05.800750+00:00", "meta": {"OBJECT_NAME": "STARLINK-35842", "OBJECT_ID": "2025-298N", "EPOCH": "2025-12-22T22:00:03.000096", "MEAN_MOTION": 15.8946798, "ECCENTRICITY": 0.00045842, "INCLINATION": 69.9968, "RA_OF_ASC_NODE": 221.0912, "ARG_OF_PERICENTER": 272.8127, "MEAN_ANOMALY": 54.9552, "EPHEMERIS_TYPE": 0, "CLASSIFICATION_TYPE": "U", "NORAD_CAT_ID": 67087, "ELEMENT_SET_NO": 999, "REV_AT_EPOCH": 261, "BSTAR": -0.0068286805, "MEAN_MOTION_DOT": -0.01979549, "MEAN_MOTION_DDOT": 0.0010429574}, "tle": {"line1": "1 67087U 25298N   25356.91670139 -.01979549  10430-2 -68287-2 0  9990", "line2": "2 67087  69.9968 221.0912 0004584 272.8127  54.9552 15.89467980  2610"}}, "geometry": {"type": "Point", "coordinates": [109.24663465281445, -68.75709769416339]}}, {"type": "Feature", "properties": {"norad_id": 67088, "name": "STARLINK-35882", "group": "last-30-days", "lat": -69.3748900105179, "lon": 115.11515256149048, "alt_km": 313.50153983537894, "timestamp": "2025-12-23T09:49:05.800762+00:00", "meta": {"OBJECT_NAME": "STARLINK-35882", "OBJECT_ID": "2025-298P", "EPOCH": "2025-12-22T22:00:03.000096", "MEAN_MOTION": 15.89490684, "ECCENTRICITY": 0.00038226, "INCLINATION": 69.9968, "RA_OF_ASC_NODE": 221.0887, "ARG_OF_PERICENTER": 268.3515, "MEAN_ANOMALY": 61.6026, "EPHEMERIS_TYPE": 0, "CLASSIFICATION_TYPE": "U", "NORAD_CAT_ID": 67088, "ELEMENT_SET_NO": 999, "REV_AT_EPOCH": 261, "BSTAR": -0.0069985255, "MEAN_MOTION_DOT": -0.02029893, "MEAN_MOTION_DDOT": 0.0010934707}, "tle": {"line1": "1 67088U 25298P   25356.91670139 -.02029893  10935-2 -69985-2 0  9996", "line2": "2 67088  69.9968 221.0887 0003822 268.3515  61.6026 15.89490684  2615"}}, "geometry": {"type": "Point", "coordinates": [115.11515256149048, -69.3748900105179]}}, {"type": "Feature", "properties": {"norad_id": 67089, "name": "STARLINK-35763", "group": "last-30-days", "lat": -69.78743502028811, "lon": 121.34575059042865, "alt_km": 313.35633878367844, "timestamp": "2025-12-23T09:49:05.800774+00:00", "meta": {"OBJECT_NAME": "STARLINK-35763", "OBJECT_ID": "2025-298Q", "EPOCH": "2025-12-22T22:00:03.000096", "MEAN_MOTION": 15.89475578, "ECCENTRICITY": 0.00040759, "INCLINATION": 69.9967, "RA_OF_ASC_NODE": 221.0857, "ARG_OF_PERICENTER": 271.4676, "MEAN_ANOMALY": 60.7269, "EPHEMERIS_TYPE": 0, "CLASSIFICATION_TYPE": "U", "NORAD_CAT_ID": 67089, "ELEMENT_SET_NO": 999, "REV_AT_EPOCH": 261, "BSTAR": -0.0069819269, "MEAN_MOTION_DOT": -0.02023802, "MEAN_MOTION_DDOT": 0.0010871585}, "tle": {"line1": "1 67089U 25298Q   25356.91670139 -.02023802  10872-2 -69819-2 0  9997", "line2": "2 67089  69.9967 221.0857 0004075 271.4676  60.7269 15.89475578  2610"}}, "geometry": {"type": "Point", "coordinates": [121.34575059042865, -69.78743502028811]}}]}